[{"OBJECT_NAME":"STARLINK-4270","OBJECT_ID":"2022-062AK","EPOCH":"2026-03-09T06:27:17.093376","MEAN_MOTION":15.08840708,"ECCENTRICITY":0.00015494,"INCLINATION":53.219,"RA_OF_ASC_NODE":26.0089,"ARG_OF_PERICENTER":93.4908,"MEAN_ANOMALY":266.6262,"EPHEMERIS_TYPE":0,"CLASSIFICATION_TYPE":"U","NORAD_CAT_ID":52863,"ELEMENT_SET_NO":999,"REV_AT_EPOCH":20586,"BSTAR":3.4003308e-5,"MEAN_MOTION_DOT":2.53e-6,"MEAN_MOTION_DDOT":0},{"OBJECT_NAME":"SL-8 R\/B","OBJECT_ID":"1968-040B","EPOCH":"2026-03-09T18:37:46.369632","MEAN_MOTION":15.03260494,"ECCENTRICITY":0.00239141,"INCLINATION":74.0322,"RA_OF_ASC_NODE":313.5182,"ARG_OF_PERICENTER":137.361,"MEAN_ANOMALY":222.9441,"EPHEMERIS_TYPE":0,"CLASSIFICATION_TYPE":"U","NORAD_CAT_ID":3230,"ELEMENT_SET_NO":999,"REV_AT_EPOCH":9002,"BSTAR":0.00025747843,"MEAN_MOTION_DOT":3.469e-5,"MEAN_MOTION_DDOT":0}]
